AURA                    
1 28376U 04026A   26199.82479501  .00000347  00000+0  79964-4 0  9993
2 28376  98.3432 156.5439 0001372  93.9382 266.1975 14.61370724170837
CAPELLA-11 (ACADIA-1)   
1 57693U 23126A   26198.00479735  .00001969  00000+0  25504-3 0  9998
2 57693  53.0067  55.4245 0002338 134.2199 225.8973 14.85083670156553
CAPELLA-14 (ACADIA-4)   
1 59444U 24066C   26197.42798986  .00005130  00000+0  34717-3 0  9995
2 59444  45.6012 101.4049 0002747  73.4558 286.6628 15.07675032116908
CAPELLA-13 (ACADIA-3)   
1 60419U 24142A   26199.60778469  .00001832  00000+0  22511-3 0  9994
2 60419  53.0045 280.4176 0001349  88.5673 271.5462 14.87658319105084
CAPELLA-15 (ACADIA-5)   
1 60544U 24149CE  26199.76790108  .00001579  00000+0  15961-3 0  9990
2 60544  97.6759 271.8791 0003065 324.5067  35.5948 14.92397955104564
BIOMASS                 
1 63772U 25090A   26199.80914858  .00000217  00000+0  46686-4 0  9994
2 63772  98.0750  26.6638 0001446  91.7334 268.4036 14.67534427 65327
CAPELLA-17 (ACADIA-7)   
1 64583U 25135BH  26199.80200027  .00003384  00000+0  34234-3 0  9994
2 64583  97.7711 312.9590 0004217 234.1727 125.9101 14.91643835 58566
CAPELLA-16 (ACADIA-6)   
1 65318U 25188D   26199.77073588  .00002938  00000+0  28029-3 0  9994
2 65318  97.7377 274.4508 0005870 125.7448 234.4318 14.94074135 48630
CAPELLA-19 (ACADIA-9)   
1 67384U 26004X   26199.16011186  .00002377  00000+0  27383-3 0  9995
2 67384  97.8003 196.9723 0001041  69.5054 290.6274 14.86633532 27874
CAPELLA-18 (ACADIA-8)   
1 67385U 26004Y   26199.70860198  .00001882  00000+0  21800-3 0  9999
2 67385  97.8019 197.6663 0001454  95.5262 264.6120 14.86646395 27963
